{"type": "FeatureCollection", "features": [ {"type": "Feature", "properties": {"norad_id": 66479, "name": "STARLINK-35581", "group": "last-30-days", "lat": 4.405788746885659, "lon": -81.09200549273558, "alt_km": 414.6677750854651, "timestamp": "2025-12-07T03:52:31.203253+00:00", "meta": {"OBJECT_NAME": "STARLINK-35581", "OBJECT_ID": "2025-262Z", "EPOCH": "2025-12-06T14:00:01.999872", "MEAN_MOTION": 15.50624261, "ECCENTRICITY": 0.0001135, "INCLINATION": 43.0006, "RA_OF_ASC_NODE": 107.0328, "ARG_OF_PERICENTER": 268.7461, "MEAN_ANOMALY": 273.8227, "EPHEMERIS_TYPE": 0, "CLASSIFICATION_TYPE": "U", "NORAD_CAT_ID": 66479, "ELEMENT_SET_NO": 999, "REV_AT_EPOCH": 464, "BSTAR": -0.0023109307, "MEAN_MOTION_DOT": -0.00133833, "MEAN_MOTION_DDOT": 0}, "tle": {"line1": "1 66479U 25262Z   25340.58335648 -.00133833  00000+0 -23109-2 0  9994", "line2": "2 66479  43.0006 107.0328 0001135 268.7461 273.8227 15.50624261  4649"}}, "geometry": {"type": "Point", "coordinates": [-81.09200549273558, 4.405788746885659]}}, {"type": "Feature", "properties": {"norad_id": 66480, "name": "STARLINK-35670", "group": "last-30-days", "lat": 0.48724127543426526, "lon": -76.88742380510318, "alt_km": 415.13262973184646, "timestamp": "2025-12-07T03:52:31.203264+00:00", "meta": {"OBJECT_NAME": "STARLINK-35670", "OBJECT_ID": "2025-262AA", "EPOCH": "2025-12-06T14:00:01.999872", "MEAN_MOTION": 15.50592684, "ECCENTRICITY": 0.00012782, "INCLINATION": 43.0004, "RA_OF_ASC_NODE": 107.0176, "ARG_OF_PERICENTER": 274.2918, "MEAN_ANOMALY": 274.0383, "EPHEMERIS_TYPE": 0, "CLASSIFICATION_TYPE": "U", "NORAD_CAT_ID": 66480, "ELEMENT_SET_NO": 999, "REV_AT_EPOCH": 464, "BSTAR": -0.0014620755, "MEAN_MOTION_DOT": -0.00085227, "MEAN_MOTION_DDOT": 0}, "tle": {"line1": "1 66480U 25262AA  25340.58335648 -.00085227  00000+0 -14621-2 0  9998", "line2": "2 66480  43.0004 107.0176 0001278 274.2918 274.0383 15.50592684  4646"}}, "geometry": {"type": "Point", "coordinates": [-76.88742380510318, 0.48724127543426526]}}, {"type": "Feature", "properties": {"norad_id": 66481, "name": "STARLINK-35698", "group": "last-30-days", "lat": -0.8167847062607972, "lon": -75.49262565061841, "alt_km": 415.29699557980985, "timestamp": "2025-12-07T03:52:31.203278+00:00", "meta": {"OBJECT_NAME": "STARLINK-35698", "OBJECT_ID": "2025-262AB", "EPOCH": "2025-12-06T14:00:01.999872", "MEAN_MOTION": 15.50626673, "ECCENTRICITY": 0.0001215, "INCLINATION": 43.0006, "RA_OF_ASC_NODE": 107.0129, "ARG_OF_PERICENTER": 269.3378, "MEAN_ANOMALY": 280.9049, "EPHEMERIS_TYPE": 0, "CLASSIFICATION_TYPE": "U", "NORAD_CAT_ID": 66481, "ELEMENT_SET_NO": 999, "REV_AT_EPOCH": 464, "BSTAR": -0.0024693128, "MEAN_MOTION_DOT": -0.00142832, "MEAN_MOTION_DDOT": 0}, "tle": {"line1": "1 66481U 25262AB  25340.58335648 -.00142832  00000+0 -24693-2 0  9995", "line2": "2 66481  43.0006 107.0129 0001215 269.3378 280.9049 15.50626673  4644"}}, "geometry": {"type": "Point", "coordinates": [-75.49262565061841, -0.8167847062607972]}}, {"type": "Feature", "properties": {"norad_id": 66482, "name": "STARLINK-35648", "group": "last-30-days", "lat": -2.1231836325486797, "lon": -74.09367004685909, "alt_km": 415.4582952220162, "timestamp": "2025-12-07T03:52:31.203289+00:00", "meta": {"OBJECT_NAME": "STARLINK-35648", "OBJECT_ID": "2025-262AC", "EPOCH": "2025-12-06T14:00:01.999872", "MEAN_MOTION": 15.50636044, "ECCENTRICITY": 0.00012572, "INCLINATION": 43.0006, "RA_OF_ASC_NODE": 107.0084, "ARG_OF_PERICENTER": 269.8489, "MEAN_ANOMALY": 282.3067, "EPHEMERIS_TYPE": 0, "CLASSIFICATION_TYPE": "U", "NORAD_CAT_ID": 66482, "ELEMENT_SET_NO": 999, "REV_AT_EPOCH": 449, "BSTAR": -0.0026811426, "MEAN_MOTION_DOT": -0.00154872, "MEAN_MOTION_DDOT": 0}, "tle": {"line1": "1 66482U 25262AC  25340.58335648 -.00154872  00000+0 -26811-2 0  9997", "line2": "2 66482  43.0006 107.0084 0001257 269.8489 282.3067 15.50636044  4491"}}, "geometry": {"type": "Point", "coordinates": [-74.09367004685909, -2.1231836325486797]}}, {"type": "Feature", "properties": {"norad_id": 66483, "name": "STARLINK-35654", "group": "last-30-days", "lat": -3.433228843111021, "lon": -72.68852978980165, "alt_km": 415.583828775817, "timestamp": "2025-12-07T03:52:31.203299+00:00", "meta": {"OBJECT_NAME": "STARLINK-35654", "OBJECT_ID": "2025-262AD", "EPOCH": "2025-12-06T14:00:01.999872", "MEAN_MOTION": 15.50618836, "ECCENTRICITY": 0.00010761, "INCLINATION": 43.0007, "RA_OF_ASC_NODE": 107.0024, "ARG_OF_PERICENTER": 273.097, "MEAN_ANOMALY": 280.9794, "EPHEMERIS_TYPE": 0, "CLASSIFICATION_TYPE": "U", "NORAD_CAT_ID": 66483, "ELEMENT_SET_NO": 999, "REV_AT_EPOCH": 464, "BSTAR": -0.00215535, "MEAN_MOTION_DOT": -0.00124961, "MEAN_MOTION_DDOT": 0}, "tle": {"line1": "1 66483U 25262AD  25340.58335648 -.00124961  00000+0 -21553-2 0  9992", "line2": "2 66483  43.0007 107.0024 0001076 273.0970 280.9794 15.50618836  4645"}}, "geometry": {"type": "Point", "coordinates": [-72.68852978980165, -3.433228843111021]}}, {"type": "Feature", "properties": {"norad_id": 66484, "name": "STARLINK-35371", "group": "last-30-days", "lat": -4.747356042508847, "lon": -71.27061844571486, "alt_km": 415.5541010085135, "timestamp": "2025-12-07T03:52:31.203309+00:00", "meta": {"OBJECT_NAME": "STARLINK-35371", "OBJECT_ID": "2025-262AE", "EPOCH": "2025-12-06T14:00:01.999872", "MEAN_MOTION": 15.50577002, "ECCENTRICITY": 0.00015189, "INCLINATION": 43.0003, "RA_OF_ASC_NODE": 106.9986, "ARG_OF_PERICENTER": 273.7498, "MEAN_ANOMALY": 282.2461, "EPHEMERIS_TYPE": 0, "CLASSIFICATION_TYPE": "U", "NORAD_CAT_ID": 66484, "ELEMENT_SET_NO": 999, "REV_AT_EPOCH": 464, "BSTAR": -0.00065540512, "MEAN_MOTION_DOT": -0.00038599, "MEAN_MOTION_DDOT": 0}, "tle": {"line1": "1 66484U 25262AE  25340.58335648 -.00038599  00000+0 -65541-3 0  9990", "line2": "2 66484  43.0003 106.9986 0001518 273.7498 282.2461 15.50577002  4645"}}, "geometry": {"type": "Point", "coordinates": [-71.27061844571486, -4.747356042508847]}}, {"type": "Feature", "properties": {"norad_id": 66485, "name": "STARLINK-34774", "group": "last-30-days", "lat": 34.90443979928786, "lon": -153.69874190311455, "alt_km": 396.5435628993873, "timestamp": "2025-12-07T03:52:31.203319+00:00", "meta": {"OBJECT_NAME": "STARLINK-34774", "OBJECT_ID": "2025-263A", "EPOCH": "2025-12-06T14:00:01.999872", "MEAN_MOTION": 15.58014397, "ECCENTRICITY": 0.00015437, "INCLINATION": 42.9995, "RA_OF_ASC_NODE": 161.2307, "ARG_OF_PERICENTER": 271.1281, "MEAN_ANOMALY": 142.2719, "EPHEMERIS_TYPE": 0, "CLASSIFICATION_TYPE": "U", "NORAD_CAT_ID": 66485, "ELEMENT_SET_NO": 999, "REV_AT_EPOCH": 464, "BSTAR": -0.03088475, "MEAN_MOTION_DOT": -0.0211638, "MEAN_MOTION_DDOT": 0}, "tle": {"line1": "1 66485U 25263A   25340.58335648 -.02116380  00000+0 -30885-1 0  9990", "line2": "2 66485  42.9995 161.2307 0001543 271.1281 142.2719 15.58014397  4647"}}, "geometry": {"type": "Point", "coordinates": [-153.69874190311455, 34.90443979928786]}}, {"type": "Feature", "properties": {"norad_id": 66486, "name": "STARLINK-34844", "group": "last-30-days", "lat": 35.7540345467448, "lon": -151.59414087331385, "alt_km": 396.4957073917203, "timestamp": "2025-12-07T03:52:31.203330+00:00", "meta": {"OBJECT_NAME": "STARLINK-34844", "OBJECT_ID": "2025-263B", "EPOCH": "2025-12-06T14:00:01.999872", "MEAN_MOTION": 15.580097, "ECCENTRICITY": 0.00016315, "INCLINATION": 42.9998, "RA_OF_ASC_NODE": 161.2249, "ARG_OF_PERICENTER": 269.6645, "MEAN_ANOMALY": 145.6529, "EPHEMERIS_TYPE": 0, "CLASSIFICATION_TYPE": "U", "NORAD_CAT_ID": 66486, "ELEMENT_SET_NO": 999, "REV_AT_EPOCH": 459, "BSTAR": -0.030767939, "MEAN_MOTION_DOT": -0.02108982, "MEAN_MOTION_DDOT": 0}, "tle": {"line1": "1 66486U 25263B   25340.58335648 -.02108982  00000+0 -30768-1 0  9990", "line2": "2 66486  42.9998 161.2249 0001631 269.6645 145.6529 15.58009700  4592"}}, "geometry": {"type": "Point", "coordinates": [-151.59414087331385, 35.7540345467448]}}, {"type": "Feature", "properties": {"norad_id": 66487, "name": "STARLINK-34733", "group": "last-30-days", "lat": 36.56492922077983, "lon": -149.44476515222996, "alt_km": 396.3658114150694, "timestamp": "2025-12-07T03:52:31.203340+00:00", "meta": {"OBJECT_NAME": "STARLINK-34733", "OBJECT_ID": "2025-263C", "EPOCH": "2025-12-06T14:00:01.999872", "MEAN_MOTION": 15.58015691, "ECCENTRICITY": 0.00016185, "INCLINATION": 42.9996, "RA_OF_ASC_NODE": 161.221, "ARG_OF_PERICENTER": 271.713, "MEAN_ANOMALY": 145.5189, "EPHEMERIS_TYPE": 0, "CLASSIFICATION_TYPE": "U", "NORAD_CAT_ID": 66487, "ELEMENT_SET_NO": 999, "REV_AT_EPOCH": 464, "BSTAR": -0.030890989, "MEAN_MOTION_DOT": -0.02116906, "MEAN_MOTION_DDOT": 0}, "tle": {"line1": "1 66487U 25263C   25340.58335648 -.02116906  00000+0 -30891-1 0  9993", "line2": "2 66487  42.9996 161.2210 0001618 271.7130 145.5189 15.58015691  4640"}}, "geometry": {"type": "Point", "coordinates": [-149.44476515222996, 36.56492922077983]}}, {"type": "Feature", "properties": {"norad_id": 66488, "name": "STARLINK-35515", "group": "last-30-days", "lat": 37.3368912060501, "lon": -147.25082035828413, "alt_km": 396.265414215658, "timestamp": "2025-12-07T03:52:31.203353+00:00", "meta": {"OBJECT_NAME": "STARLINK-35515", "OBJECT_ID": "2025-263D", "EPOCH": "2025-12-06T14:00:01.999872", "MEAN_MOTION": 15.58012455, "ECCENTRICITY": 0.00015946, "INCLINATION": 42.9996, "RA_OF_ASC_NODE": 161.2159, "ARG_OF_PERICENTER": 270.1885, "MEAN_ANOMALY": 148.9601, "EPHEMERIS_TYPE": 0, "CLASSIFICATION_TYPE": "U", "NORAD_CAT_ID": 66488, "ELEMENT_SET_NO": 999, "REV_AT_EPOCH": 464, "BSTAR": -0.030797028, "MEAN_MOTION_DOT": -0.02110928, "MEAN_MOTION_DDOT": 0}, "tle": {"line1": "1 66488U 25263D   25340.58335648 -.02110928  00000+0 -30797-1 0  9997", "line2": "2 66488  42.9996 161.2159 0001594 270.1885 148.9601 15.58012455  4647"}}, "geometry": {"type": "Point", "coordinates": [-147.25082035828413, 37.3368912060501]}}]}